<?xml version="1.0" encoding="UTF-8"?><kml xmlns="http://www.opengis.net/kml/2.2"><Document><name>น้ำเข้าเมืองพนัส + จุดติดเซนเซอร์</name><Placemark><name>คลองกลางเมือง (ไหลเข้ากลางเมือง ผ่านออฟฟิศ)</name><Style><LineStyle><color>ff0000ff</color><width>6</width></LineStyle></Style><LineString><coordinates>101.18031,13.43994 101.18029,13.43989 101.18026,13.43959 101.18019,13.4393 101.18026,13.43896 101.18032,13.43884 101.18042,13.43881 101.18058,13.43883 101.1808,13.43893 101.18094,13.43893 101.18097,13.4388 101.18084,13.43866 101.18067,13.43854 101.18053,13.43844 101.18056,13.43829 101.18072,13.43812 101.1809,13.4381 101.18101,13.43821 101.18118,13.4384 101.18132,13.4385 101.18141,13.43837 101.18139,13.43817 101.18134,13.43804 101.1812,13.43797 101.18108,13.43787 101.18107,13.43767 101.18123,13.43764 101.1814,13.43756 101.18155,13.43747 101.18174,13.43753 101.18185,13.43782 101.18191,13.43804 101.18215,13.43806 101.18248,13.43805 101.18271,13.43803 101.18293,13.43786 101.18289,13.43778 101.18265,13.43775 101.18259,13.43768 101.1826,13.43752 101.18263,13.43745 101.18293,13.43715 101.18293,13.43699 101.18285,13.43681 101.18279,13.43667 101.18277,13.43657 101.18287,13.43631 101.18292,13.43615 101.18278,13.43609 101.18263,13.43609 101.18257,13.43606 101.18257,13.43588 101.18266,13.43574 101.18281,13.43567 101.18299,13.43566 101.18323,13.43566 101.18335,13.4356 101.18333,13.43543 101.18315,13.43536 101.18296,13.43536 101.18293,13.4353 101.18307,13.43516 101.18316,13.43509 101.18334,13.43492 101.18358,13.43491 101.18377,13.43492 101.18384,13.43483 101.18379,13.43462 101.18365,13.43452 101.18345,13.43452 101.18326,13.43443 101.18318,13.43436 101.18293,13.43398 101.18297,13.43384 101.18329,13.43355 101.18338,13.43339 101.18355,13.43325 101.18376,13.43319 101.18383,13.43304 101.18385,13.43295 101.18388,13.43284 101.18407,13.43273 101.18406,13.43258 101.18404,13.43242 101.18411,13.43214 101.18446,13.43192 101.18459,13.43175 101.18463,13.43153 101.18472,13.43132 101.18465,13.43118 101.18456,13.43112 101.18463,13.43083 101.18479,13.43062 101.18499,13.43052 101.18518,13.43055 101.18538,13.43049 101.18553,13.43032 101.18548,13.43008 101.18545,13.42985 101.18552,13.42968 101.18569,13.42962 101.18585,13.4296 101.18588,13.42949 101.18586,13.42931 101.1859,13.42905 101.18608,13.42908 101.18629,13.42925 101.18648,13.42939 101.18669,13.42941 101.18693,13.42943 101.18702,13.42931 101.18708,13.42916 101.18705,13.42904 101.18697,13.42894 101.18694,13.42886 101.18695,13.42871 101.18709,13.42856 101.18728,13.42844 101.18731,13.42824 101.187,13.42814 101.18682,13.42802 101.18679,13.42781 101.18695,13.42768 101.1871,13.4276 101.18716,13.42743 101.1872,13.4273 101.18741,13.42708 101.18751,13.42704 101.18756,13.42684 101.18756,13.42651 101.18762,13.42626 101.18766,13.42617 101.18793,13.42628 101.18817,13.42631 101.18824,13.4262 101.18856,13.42568 101.18871,13.42528 101.18887,13.425 101.18912,13.42501 101.18942,13.42496 101.18948,13.42467 101.18932,13.42434 101.18929,13.4241 101.18972,13.42386 101.18983,13.42402 101.18977,13.42426 101.18987,13.42439 101.19035,13.42416 101.19081,13.42402 101.19098,13.42376 101.19089,13.42361 101.19068,13.42367 101.19057,13.4235 101.19061,13.4233 101.19109,13.42316 101.19148,13.42303 101.19148,13.42281 101.19146,13.42251 101.19167,13.4221 101.19197,13.42193 101.19202,13.42171 101.19215,13.42153 101.19235,13.42132 101.19253,13.42103 101.19245,13.42091 101.19232,13.42098 101.19218,13.42098 101.19215,13.42078 101.19218,13.42059 101.19219,13.42045 101.1921,13.42022 101.19218,13.4201 101.19244,13.42009 101.19265,13.42014 101.19284,13.42005 101.19279,13.41983 101.19267,13.41966 101.19254,13.41957 101.19233,13.41965 101.19217,13.41978 101.19199,13.41982 101.19193,13.41973 101.19193,13.41959 101.19187,13.41937 101.1918,13.4193 101.19166,13.41928 101.19152,13.41929 101.19139,13.41923 101.19135,13.41912 101.19153,13.41896 101.1918,13.41886 101.19197,13.41879 101.19201,13.4186 101.19187,13.41847 101.19172,13.41842 101.19152,13.41836 101.19145,13.41822 101.19145,13.41813 101.19157,13.41801 101.19158,13.41784 101.1916,13.41767 101.19177,13.41751 101.19197,13.41745 101.19198,13.4172 101.19168,13.41713 101.19163,13.41699 101.19165,13.4169 101.19189,13.41687 101.19199,13.41688 101.1921,13.41684 101.19203,13.41662 101.192,13.41645 101.19203,13.41623 101.19194,13.41603 101.1919,13.41585 101.19206,13.41576 101.19238,13.41586 101.19255,13.41583 101.19251,13.41558 101.19244,13.41542 101.19251,13.41524 101.19263,13.41518 101.19273,13.41513 101.19276,13.41495 101.1928,13.41482 101.19294,13.41466 101.1934,13.41419 101.19401,13.41367 101.19422,13.41346 101.1941,13.41324 101.19415,13.41313 101.19435,13.41307 101.19442,13.41289 101.19445,13.4126 101.19453,13.41215 101.19443,13.41193 101.19452,13.4118 101.19488,13.41188 101.19519,13.41185 101.19535,13.41158 101.1953,13.41134 101.19557,13.41085 101.19563,13.41068 101.19602,13.41064 101.19637,13.41041 101.19648,13.41007 101.19645,13.40969 101.19666,13.40954 101.19679,13.4094 101.1967,13.40914 101.19672,13.40891 101.19698,13.40876 101.19704,13.40891 101.19702,13.40919 101.19734,13.40924 101.19761,13.40921 101.19777,13.40925 101.19779,13.409 101.19802,13.40885 101.19813,13.4087 101.19847,13.40871 101.19888,13.4087 101.19902,13.40855 101.19879,13.40826 101.19863,13.40811 101.19873,13.40797 101.199,13.40789 101.19919,13.40773 101.19928,13.4073 101.19969,13.40708 101.20003,13.40711 101.20022,13.40689 101.20033,13.40666 101.2005,13.40647 101.20048,13.4062 101.20016,13.40624 101.19982,13.40648 101.19968,13.40639 101.19949,13.40617 101.19985,13.40585 101.19984,13.40565 101.19987,13.40545 101.20008,13.40529 101.20024,13.40513 101.20023,13.40497 101.20027,13.40475 101.20031,13.40457 101.20022,13.40402 101.20046,13.40416 101.20065,13.40438 101.20082,13.40448 101.20102,13.40419 101.20108,13.40395 101.20105,13.40386 101.20074,13.40374 101.20067,13.40327 101.20062,13.40316 101.20029,13.4026 101.20026,13.40236 101.20027,13.40216 101.20021,13.40206 101.20008,13.40199 101.19992,13.40203 101.19974,13.40203 101.19957,13.40191 101.19964,13.4016 101.19974,13.40138 101.19979,13.40108 101.20005,13.40094 101.20019,13.40094 101.20048,13.40063 101.20054,13.40043 101.20084,13.40031 101.20112,13.40021 101.20116,13.40003 101.2011,13.39982 101.20111,13.39965 101.20145,13.39956 101.20166,13.39952 101.20171,13.39938 101.2018,13.39922 101.20239,13.3991 101.20244,13.39884 101.2024,13.3987 101.20237,13.39841 101.2027,13.3981 101.20293,13.39795 101.20316,13.39797 101.20343,13.39798 101.20355,13.39785 101.20355,13.39767 101.20354,13.39752 101.20371,13.39729 101.2038,13.39726 101.20395,13.39722 101.20417,13.39721 101.2042,13.39707 101.20409,13.39699 101.20383,13.3968 101.20395,13.39655 101.20409,13.39648 101.20428,13.3965 101.20442,13.39643 101.20453,13.39628 101.20468,13.39624 101.20487,13.3962 101.20494,13.39606 101.20491,13.39586 101.20502,13.39567 101.20518,13.39567 101.20532,13.39585 101.20547,13.39588 101.20556,13.39583 101.20564,13.39571 101.20559,13.3955 101.20563,13.39523 101.20583,13.39504 101.20589,13.39481 101.20554,13.39458 101.20553,13.39436 101.20571,13.39401 101.2059,13.39377 101.20594,13.39354 101.20603,13.39332 101.20608,13.39307 101.20608,13.39292 101.20629,13.39272 101.20641,13.39249 101.20623,13.3922 101.20609,13.39222 101.20594,13.39204 101.20585,13.39179 101.20554,13.39146 101.20549,13.39133 101.20544,13.39094 101.20553,13.39062 101.2055,13.39042 101.20543,13.39035 101.20519,13.39015 101.20526,13.38979 101.20545,13.38961 101.20557,13.38925 101.20559,13.38906 101.20558,13.38889 101.20545,13.3886 101.20549,13.38835 101.20593,13.38809 101.20605,13.38781 101.2063,13.38755 101.20693,13.38744 101.20724,13.3873 101.2073,13.38711 101.20697,13.38715 101.20679,13.38703 101.20691,13.3868 101.20703,13.38663 101.20693,13.38639 101.2063,13.38657 101.20629,13.38607 101.20622,13.38578 101.20659,13.38552 101.20693,13.38518 101.20695,13.38477 101.20691,13.38423 101.20712,13.38403 101.20728,13.38411 101.20743,13.38426 101.20773,13.38414 101.20769,13.38406 101.20748,13.38387 101.20735,13.38371 101.20735,13.3835 101.20736,13.38341 101.20764,13.38347 101.20784,13.38325 101.20786,13.38302 101.20795,13.38277 101.20839,13.3823 101.2084,13.38209 101.2085,13.38186 101.20889,13.38215 101.20917,13.38227 101.20953,13.38213 101.20977,13.38205 101.20999,13.38217 101.21023,13.38217 101.21033,13.38212</coordinates></LineString></Placemark><Placemark><name>คลองกลางเมือง (ไหลเข้ากลางเมือง ผ่านออฟฟิศ)</name><Style><LineStyle><color>ff0000ff</color><width>6</width></LineStyle></Style><LineString><coordinates>101.17981,13.44265 101.17988,13.44256 101.17996,13.44234 101.17993,13.44218 101.17984,13.44201 101.17958,13.44187 101.17923,13.44172 101.17911,13.44143 101.17911,13.44124 101.17915,13.44095 101.17931,13.44076 101.1795,13.4407 101.17986,13.44061 101.18022,13.44048 101.18046,13.44036 101.18046,13.44022 101.18041,13.44014 101.1804,13.44012</coordinates></LineString></Placemark><Placemark><name>คลองกลางเมือง (ไหลเข้ากลางเมือง ผ่านออฟฟิศ)</name><Style><LineStyle><color>ff0000ff</color><width>6</width></LineStyle></Style><LineString><coordinates>101.17968,13.44276 101.17981,13.44265</coordinates></LineString></Placemark><Placemark><name>คลองกลางเมือง (ไหลเข้ากลางเมือง ผ่านออฟฟิศ)</name><Style><LineStyle><color>ff0000ff</color><width>6</width></LineStyle></Style><LineString><coordinates>101.1531,13.49184 101.15325,13.49165 101.15288,13.49119 101.1528,13.49098 101.15333,13.49019 101.15406,13.48959 101.1551,13.48896 101.1567,13.48819 101.15767,13.48747 101.15907,13.48662 101.15982,13.48617 101.16085,13.48523 101.16223,13.48407 101.16239,13.48387 101.16267,13.4838 101.1629,13.48356 101.16321,13.48308 101.16346,13.48286 101.16385,13.48256 101.16433,13.48249 101.16457,13.48235 101.16488,13.48199 101.16507,13.48165 101.16519,13.48126 101.16556,13.48105 101.16593,13.48085 101.16613,13.48079 101.16632,13.48062 101.16633,13.48041 101.16628,13.48018 101.16625,13.47986 101.16646,13.47976 101.16711,13.47937 101.16745,13.4792 101.16817,13.47913 101.16838,13.47931 101.16875,13.47941 101.16889,13.47935 101.16975,13.47913 101.17025,13.47897 101.17092,13.47867 101.17135,13.47836 101.17206,13.47771 101.1724,13.47717 101.17274,13.47692 101.17324,13.47666 101.17391,13.47644 101.17398,13.47619 101.1741,13.47588 101.17415,13.47561 101.17416,13.47511 101.17397,13.47491 101.17377,13.47447 101.17373,13.47418 101.17383,13.47393 101.17402,13.4737 101.17393,13.47353 101.1739,13.47348 101.17368,13.47324 101.17365,13.4732 101.17347,13.47291 101.17332,13.47278 101.17319,13.47251 101.17318,13.47224 101.17326,13.47192 101.1734,13.47154 101.17334,13.47121 101.17334,13.47087 101.17326,13.47057 101.17342,13.47036 101.17376,13.47017 101.17416,13.46998 101.1743,13.46979 101.17414,13.46962 101.17392,13.46945 101.17382,13.46918 101.17377,13.46896 101.17365,13.46874 101.17361,13.46845 101.1735,13.46805 101.17327,13.46785 101.17326,13.46769 101.17331,13.46751 101.17336,13.4672 101.17337,13.46688 101.17335,13.46661 101.17336,13.46632 101.17351,13.46614 101.17374,13.46592 101.17378,13.46575 101.17362,13.46571 101.17326,13.46566 101.17318,13.46545 101.17332,13.46522 101.17352,13.46503 101.17367,13.46481 101.17364,13.46458 101.17361,13.46424 101.17366,13.46417 101.17406,13.4639 101.17431,13.4638 101.17459,13.46386 101.17477,13.46397 101.17502,13.46404 101.17527,13.46391 101.17554,13.46371 101.17581,13.46346 101.17583,13.46333 101.17606,13.46304 101.17606,13.46296 101.17607,13.46281 101.17598,13.46258 101.17603,13.46216 101.17624,13.46198 101.17639,13.46144 101.17642,13.46125 101.17639,13.46108 101.17615,13.46098 101.17612,13.46078 101.17633,13.46052 101.17697,13.46017 101.17721,13.45994 101.17744,13.4598 101.17767,13.45979 101.17784,13.4597 101.17811,13.45953 101.17861,13.45955 101.17886,13.45963 101.17911,13.45967 101.17928,13.45953 101.17916,13.45926 101.17912,13.45915 101.17909,13.459 101.17909,13.45877 101.17914,13.45851 101.17926,13.45824 101.17938,13.45812 101.17959,13.45794 101.17967,13.45781 101.17961,13.45759 101.17951,13.45742 101.17935,13.4573 101.17904,13.45726 101.17872,13.45725 101.17854,13.45723 101.17846,13.45717 101.17842,13.45711 101.17841,13.45702 101.17838,13.45695 101.17839,13.45687 101.17843,13.45677 101.1785,13.45666 101.17849,13.45649 101.17842,13.45636 101.1781,13.45622 101.17797,13.45603 101.17787,13.45592 101.17778,13.45574 101.17779,13.45558 101.17783,13.4554 101.17784,13.4553 101.17787,13.45523 101.17788,13.45516 101.17775,13.45482 101.17757,13.45472 101.1774,13.45469 101.17731,13.45454 101.17731,13.45427 101.17722,13.45399 101.17716,13.45372 101.1771,13.45329 101.17701,13.45313 101.17705,13.45296 101.17741,13.45273 101.17766,13.45261 101.17776,13.45251 101.17789,13.45249 101.17801,13.45225 101.1781,13.45219 101.17816,13.45211 101.17817,13.45195 101.17816,13.45186 101.17813,13.45176 101.17808,13.45168 101.17803,13.45165 101.17795,13.45159 101.17794,13.45131 101.17796,13.45101 101.17788,13.4508 101.17771,13.45052 101.1775,13.45026 101.17741,13.45023 101.17737,13.4502 101.17736,13.45016 101.17732,13.45002 101.17739,13.44982 101.17754,13.44964 101.17777,13.44947 101.17803,13.44947 101.17829,13.44932 101.17845,13.44921 101.17872,13.44918 101.17879,13.44902 101.17868,13.44884 101.1786,13.44857 101.17849,13.44849 101.17816,13.44851 101.17805,13.44838 101.17796,13.44789 101.17793,13.44769 101.1779,13.44752 101.17792,13.44736 101.17792,13.44711 101.17788,13.44684 101.17784,13.44675 101.1779,13.44659 101.17801,13.44656 101.17829,13.44664 101.17837,13.4465 101.17856,13.44625 101.17879,13.44637 101.17886,13.44618 101.17877,13.446 101.1786,13.44578 101.17866,13.44557 101.17883,13.44551 101.17954,13.44551 101.17954,13.44539 101.17942,13.4453 101.17925,13.44516 101.17927,13.44503 101.17939,13.44497 101.17972,13.44483 101.17979,13.44451 101.17985,13.44365 101.17991,13.44326 101.17986,13.4431 101.17971,13.44311 101.17956,13.44317 101.17944,13.44321 101.17936,13.44319 101.17937,13.44313 101.17941,13.44301 101.17958,13.44291 101.17965,13.44283 101.17968,13.44276</coordinates></LineString></Placemark><Placemark><name>ลำน้ำสายหลักตะวันออก (จากถนน 331)</name><Style><LineStyle><color>ffff7700</color><width>4</width></LineStyle></Style><LineString><coordinates>101.24653,13.30438 101.24656,13.30448 101.2467,13.30484 101.24692,13.3052 101.24686,13.30547 101.24663,13.30574 101.24658,13.3061 101.24668,13.30641 101.24653,13.3066 101.24653,13.30682 101.24662,13.30713 101.24677,13.30736 101.24696,13.3076 101.24703,13.30783 101.24708,13.30811 101.24715,13.30834 101.24718,13.30856 101.24711,13.30861 101.247,13.3087 101.24701,13.30885 101.24689,13.30905 101.2466,13.30912 101.24629,13.30945 101.2463,13.30974 101.24599,13.31015 101.24598,13.31037 101.24612,13.31075 101.24592,13.31084 101.24557,13.3108 101.24548,13.3109 101.24552,13.3112 101.24569,13.3116 101.24543,13.31214 101.24537,13.31239 101.24535,13.31271 101.24521,13.31299 101.24487,13.31315 101.2447,13.31334 101.24468,13.31356 101.2446,13.31385 101.2444,13.31388 101.24436,13.31397 101.24449,13.31409 101.24464,13.31413 101.24477,13.31435 101.24476,13.31456 101.24476,13.31481 101.24476,13.31503 101.24473,13.3153 101.24464,13.31549 101.2446,13.31566 101.24467,13.31579 101.24458,13.31589 101.24444,13.31599 101.24456,13.31609 101.24435,13.31624 101.24417,13.3164 101.24401,13.31662 101.24392,13.31677 101.24399,13.31697 101.24411,13.31694 101.24428,13.31698 101.2443,13.31708 101.24421,13.31715 101.24414,13.31723 101.24423,13.31731 101.24436,13.31738 101.2443,13.31747 101.24424,13.31761 101.24431,13.31768 101.24442,13.31771 101.24438,13.31784 101.24428,13.31793 101.24425,13.31798 101.24424,13.31814 101.24408,13.31826 101.24412,13.3184 101.24406,13.3185 101.24393,13.3185 101.24395,13.31857 101.24401,13.31882 101.24405,13.31891 101.24401,13.31902 101.24388,13.31924 101.24386,13.31942 101.24385,13.31972 101.24386,13.31999 101.24399,13.32042 101.24391,13.32062 101.24392,13.3208 101.244,13.32101 101.244,13.3212 101.24397,13.32138 101.24383,13.32161 101.24389,13.32177 101.24399,13.32193 101.24394,13.32218 101.24378,13.32234 101.24376,13.32256 101.2436,13.32259 101.24349,13.32275 101.24362,13.32288 101.24368,13.32302 101.24368,13.32314 101.24352,13.32331 101.24329,13.32343 101.2432,13.32361 101.24298,13.32401 101.24275,13.32418 101.24266,13.32429 101.24266,13.32437 101.24279,13.32462 101.24275,13.32495 101.24266,13.32535 101.2426,13.32556 101.24253,13.32567 101.24256,13.32598 101.2426,13.32611</coordinates></LineString></Placemark><Placemark><name>ลำน้ำสายหลักตะวันออก (จากถนน 331)</name><Style><LineStyle><color>ffff7700</color><width>4</width></LineStyle></Style><LineString><coordinates>101.2426,13.32611 101.24271,13.32635 101.24267,13.32647 101.24253,13.32647 101.24235,13.32646 101.24222,13.32652 101.24213,13.32688 101.2421,13.3272 101.24194,13.32752 101.24162,13.32753 101.24152,13.32771 101.24138,13.32801 101.24107,13.328 101.24093,13.32806 101.24079,13.32829 101.24071,13.32834 101.24057,13.3284 101.24052,13.32845 101.24049,13.32854 101.24048,13.32872 101.24039,13.32879 101.24017,13.32883 101.2401,13.32887 101.24005,13.32891 101.24001,13.32898 101.23999,13.32907 101.23999,13.32914 101.24005,13.3293 101.24012,13.32943 101.24021,13.32957 101.24026,13.32965 101.24029,13.32976 101.24026,13.32991 101.24002,13.33023 101.23982,13.33048 101.23974,13.33049 101.23946,13.33031 101.23936,13.33037 101.23926,13.33043 101.23923,13.33051 101.23917,13.33083 101.23919,13.33108 101.23912,13.33147 101.23904,13.33172 101.23893,13.33183 101.23882,13.33202 101.23871,13.33234 101.23864,13.3325 101.238,13.33276 101.2375,13.33298 101.23712,13.33338 101.23679,13.33394 101.23655,13.33436 101.23636,13.33447 101.23614,13.33453 101.23596,13.33456 101.23588,13.33463 101.23585,13.33475 101.23588,13.33487 101.23594,13.33511 101.23593,13.33538 101.23588,13.33559 101.23584,13.33572 101.23581,13.33583 101.23585,13.33593 101.2359,13.33601 101.23604,13.33603 101.23614,13.33605 101.23615,13.33613 101.23611,13.33625 101.23604,13.33635 101.23578,13.33633 101.23561,13.33632 101.23552,13.33634 101.23548,13.33646 101.23545,13.33663 101.23513,13.3369 101.23475,13.33727 101.23445,13.33754 101.23429,13.33804 101.23416,13.33844 101.23392,13.33875 101.23381,13.33897 101.23369,13.3394 101.23342,13.33957 101.2332,13.33963 101.23303,13.34001 101.23284,13.34037 101.23262,13.34083 101.23237,13.34103 101.23202,13.3411 101.23165,13.34159 101.23146,13.34216 101.23131,13.34261 101.23118,13.34277 101.23103,13.34295 101.23074,13.34293 101.23043,13.34287 101.23032,13.34293 101.23011,13.34312 101.23014,13.34324 101.23047,13.34335 101.23052,13.34351 101.23031,13.34367 101.23023,13.34394 101.23031,13.34433 101.23025,13.34469 101.23021,13.345 101.22994,13.34526 101.22958,13.34535 101.22921,13.34552 101.229,13.34568 101.22867,13.346 101.22823,13.34615 101.22781,13.34619 101.22774,13.34652 101.22783,13.34681 101.22798,13.34725 101.22804,13.34768 101.22778,13.34778 101.22727,13.34772 101.22699,13.34791 101.22687,13.34812 101.22662,13.34835 101.22633,13.34847 101.22603,13.34867 101.22584,13.34883 101.22554,13.34914 101.2254,13.34951 101.22514,13.34971 101.22489,13.34988 101.22462,13.3502 101.22421,13.35048 101.2239,13.35073 101.22342,13.35057 101.22298,13.35035 101.2228,13.35012 101.2227,13.34976 101.22243,13.34973 101.22219,13.34986 101.22206,13.35009 101.22183,13.35017 101.22154,13.35046 101.22116,13.3505 101.22088,13.35046 101.22041,13.35036 101.22006,13.35037 101.21995,13.35055 101.21971,13.35062 101.21952,13.3504 101.21925,13.35034 101.2191,13.35046 101.21913,13.35059 101.21917,13.35077 101.219,13.35099 101.21859,13.35093 101.21817,13.35089 101.2179,13.35119 101.21748,13.35144 101.21731,13.35167 101.21699,13.35189 101.21693,13.35212 101.21696,13.35244 101.2169,13.35267 101.21678,13.35283 101.21662,13.35313</coordinates></LineString></Placemark><Placemark><name>ลำน้ำสายหลักตะวันออก (จากถนน 331)</name><Style><LineStyle><color>ffff7700</color><width>4</width></LineStyle></Style><LineString><coordinates>101.24042,13.24608 101.24038,13.24633 101.24031,13.24659 101.24026,13.24672 101.24012,13.24688 101.23997,13.24697 101.23975,13.24711 101.23956,13.24739 101.23947,13.24769 101.23945,13.24799 101.23925,13.24822 101.23896,13.24838 101.23869,13.24842 101.23858,13.24856 101.23844,13.24877 101.23823,13.24877 101.23824,13.24902 101.23832,13.24923 101.23851,13.24946 101.23854,13.24968 101.23837,13.24983 101.23819,13.24998 101.23817,13.25022 101.23769,13.25046 101.23749,13.25063 101.2375,13.25084 101.2377,13.2511 101.23769,13.2514 101.23734,13.25169 101.23697,13.25185 101.23672,13.25206 101.23669,13.25238 101.23617,13.2525 101.23596,13.25232 101.23572,13.25222 101.23537,13.25229 101.23533,13.25244 101.23512,13.25251 101.23473,13.25233 101.23447,13.25197 101.23411,13.25223 101.23386,13.25251 101.23356,13.25262 101.23343,13.2523 101.23323,13.25211 101.23259,13.25184 101.23205,13.25191 101.23185,13.25206 101.23132,13.25204 101.23071,13.25222 101.23024,13.25256 101.22981,13.25277 101.22982,13.25304 101.23051,13.2533 101.23089,13.25356 101.2308,13.2537 101.23048,13.25393 101.23006,13.25382 101.22957,13.25363 101.22935,13.25374 101.22921,13.2541 101.22894,13.25429 101.22869,13.25412 101.22839,13.2543 101.22823,13.25461 101.22816,13.25493 101.22766,13.25523 101.22732,13.25565 101.22731,13.25593 101.22732,13.2562 101.22757,13.25667 101.22798,13.25697 101.22827,13.25729 101.22829,13.25756 101.22806,13.25799 101.22787,13.25846 101.22745,13.25897 101.22696,13.25883 101.22624,13.25892 101.22619,13.25919 101.22611,13.25974 101.22611,13.26025 101.22624,13.26065 101.22647,13.2611 101.2266,13.2615 101.2266,13.26184 101.22664,13.26211 101.22679,13.2627 101.22683,13.26302 101.22703,13.26331 101.22712,13.2638 101.22671,13.26408 101.22666,13.26487 101.22682,13.26521 101.22692,13.26552 101.22655,13.26582 101.226,13.26603 101.22527,13.26619 101.22456,13.26616 101.22433,13.26641 101.22404,13.26686 101.22395,13.26696 101.22368,13.267 101.22344,13.26704 101.22332,13.2671 101.22322,13.26726 101.22328,13.26743 101.22349,13.26777 101.22348,13.26791 101.22337,13.26807 101.22306,13.26819 101.22289,13.26847 101.2229,13.26871 101.22302,13.26912 101.223,13.26948 101.22282,13.26969 101.22244,13.26986 101.22216,13.27009 101.22208,13.27052 101.22213,13.27072 101.22194,13.2714 101.22156,13.27199 101.2211,13.27282 101.22113,13.27304 101.2214,13.27378 101.22136,13.27396 101.22113,13.27409 101.22104,13.27438 101.22132,13.27468 101.22133,13.27484 101.22099,13.27494 101.22059,13.27503 101.22029,13.27529 101.22003,13.27575 101.21964,13.27597 101.21957,13.27642 101.21919,13.27697 101.21891,13.27714 101.21878,13.27749 101.21831,13.27761 101.21826,13.27775 101.21829,13.27802 101.21844,13.27868 101.21839,13.27887 101.21852,13.27914 101.21853,13.27931 101.21835,13.27947 101.21798,13.27972 101.21762,13.27978 101.21705,13.27958 101.21506,13.28087 101.21445,13.28105 101.21437,13.28136 101.21422,13.28138 101.21366,13.28135 101.21355,13.28149 101.21331,13.28167 101.21323,13.28189 101.21326,13.28203 101.21335,13.2821 101.21328,13.28236 101.21307,13.28271 101.21291,13.28281 101.21253,13.28282 101.21233,13.2827 101.21223,13.28272 101.21182,13.28291 101.21149,13.28316 101.21137,13.2834 101.21122,13.28357 101.21094,13.28406 101.21079,13.2843 101.21053,13.28449 101.21034,13.28449 101.21017,13.28457 101.20996,13.28475 101.20974,13.28523 101.21,13.28574 101.20989,13.28583 101.20974,13.28583 101.20961,13.28589 101.20953,13.286 101.20951,13.28627 101.20962,13.28642 101.20963,13.28683 101.20972,13.28713 101.20953,13.28726 101.20939,13.28777 101.2091,13.28796 101.20894,13.28823 101.20893,13.28852 101.20903,13.2891 101.20892,13.28972 101.20891,13.29012 101.20915,13.29041 101.20927,13.29071 101.20912,13.29134 101.20937,13.29169 101.20954,13.29178 101.20964,13.29213 101.21014,13.29271 101.21063,13.29294 101.21083,13.29339 101.21112,13.29405 101.21148,13.29428 101.21218,13.29435 101.2125,13.29446 101.21316,13.29502 101.21468,13.29624 101.21574,13.29691 101.2162,13.29702 101.21639,13.29697 101.21659,13.29681 101.21663,13.29673 101.2168,13.29665 101.21703,13.2966 101.21721,13.29662 101.2174,13.29675 101.2175,13.2969 101.21755,13.29713 101.21789,13.29743 101.21809,13.29747 101.21825,13.29764 101.21831,13.29777 101.21802,13.29828 101.21791,13.29907 101.21743,13.29979 101.21737,13.30049 101.21712,13.30101 101.2171,13.30131 101.21721,13.30138 101.21747,13.30141 101.21778,13.30146 101.21794,13.30146 101.21814,13.30139 101.21834,13.30129 101.21845,13.30126 101.21859,13.30126 101.21862,13.30133 101.21859,13.30157 101.21835,13.30164 101.21826,13.30176 101.21819,13.30198 101.21819,13.30235 101.21819,13.3027 101.21839,13.30294 101.21842,13.30305 101.21839,13.30315 101.21827,13.30323 101.21811,13.30329 101.21786,13.30323 101.21766,13.30329 101.21747,13.30343 101.21736,13.30348 101.21715,13.30349 101.21695,13.30354 101.21681,13.30365 101.21677,13.30413 101.21665,13.30441 101.21618,13.30476 101.21602,13.30487 101.21597,13.30505 101.21606,13.30517 101.21635,13.30561 101.21641,13.30593 101.21632,13.30648 101.21662,13.30694 101.21665,13.30708 101.21713,13.30945 101.21764,13.30985 101.21807,13.31105 101.21805,13.31156 101.2183,13.31272 101.21849,13.31313 101.21812,13.3133 101.21753,13.31379 101.21738,13.31407 101.21701,13.31429 101.21687,13.31508 101.21636,13.31536 101.21604,13.31572 101.21589,13.31632 101.21583,13.3164 101.21568,13.31638 101.21559,13.3164 101.21542,13.3167 101.21509,13.31735 101.21488,13.31761 101.21493,13.31798 101.21469,13.31827 101.2143,13.31841 101.21413,13.31869 101.21411,13.31954 101.21402,13.31962 101.21373,13.31969 101.21357,13.31982 101.21349,13.31997 101.21352,13.32007 101.21413,13.32056 101.2142,13.32101 101.21431,13.32135 101.21425,13.32196 101.21467,13.32232 101.2148,13.32259 101.21459,13.32347 101.21469,13.324 101.21467,13.3243 101.21463,13.32436 101.21438,13.32436 101.21421,13.32429 101.21413,13.32429 101.21397,13.32448 101.21395,13.3247 101.21416,13.32503 101.21438,13.32541 101.21424,13.32578 101.21438,13.32645 101.21441,13.32758 101.21428,13.32799 101.21432,13.32845 101.21417,13.32899 101.21385,13.32951 101.21352,13.32994 101.21352,13.33029 101.21366,13.33073 101.21399,13.331 101.21403,13.33136 101.2138,13.33178 101.21363,13.33233 101.21335,13.33277 101.21307,13.33313 101.21299,13.33342 101.21304,13.33388 101.2132,13.33437 101.2135,13.33476 101.2139,13.33503 101.21411,13.3353 101.21438,13.33589 101.21441,13.33662 101.21444,13.33764 101.21446,13.33809 101.21446,13.33866 101.21482,13.33894 101.21507,13.33938 101.21507,13.33987 101.21461,13.3402 101.21439,13.34052 101.21439,13.3408 101.21451,13.34134 101.2152,13.3418 101.21535,13.34219 101.21514,13.34269 101.21505,13.34321 101.21521,13.3439 101.21518,13.34442 101.21512,13.34481 101.21511,13.34536 101.21531,13.34637 101.21596,13.34708 101.21615,13.34749 101.21599,13.34807 101.21568,13.34832 101.21545,13.3486 101.21566,13.34945 101.21602,13.34997 101.21606,13.35045 101.21621,13.35087 101.21624,13.35178 101.21635,13.35236 101.21662,13.35313 101.2167,13.35334 101.21669,13.35394 101.21686,13.35436 101.21656,13.35473 101.21633,13.35513 101.21609,13.35549 101.21581,13.35577 101.21567,13.35631 101.21556,13.35678 101.21511,13.35724 101.21468,13.35728 101.21398,13.35749 101.21389,13.35787 101.21428,13.35811 101.21435,13.35846 101.21437,13.35906 101.21477,13.36003 101.21574,13.36067 101.21611,13.3613 101.21579,13.36164 101.21634,13.36208 101.21652,13.36219 101.21686,13.36277</coordinates></LineString></Placemark><Placemark><name>ลำน้ำสายหลักตะวันออก (จากถนน 331)</name><Style><LineStyle><color>ffff7700</color><width>4</width></LineStyle></Style><LineString><coordinates>101.21686,13.36277 101.21671,13.36307 101.2162,13.36325 101.21574,13.36339 101.21556,13.3639 101.21566,13.3646 101.21565,13.36508 101.21553,13.3655 101.21564,13.366 101.21568,13.36691 101.21562,13.36746 101.21566,13.36807 101.21549,13.36846 101.21506,13.3684 101.21453,13.36827 101.21412,13.36849 101.21389,13.36926 101.21382,13.36987 101.21359,13.37035 101.21302,13.37051 101.21266,13.37068 101.21243,13.37107 101.21236,13.37152 101.21241,13.3719 101.21253,13.3724 101.21245,13.37293 101.21238,13.37342 101.21257,13.37422 101.21288,13.37503 101.21305,13.376 101.2129,13.37656 101.21301,13.37704 101.21339,13.37759 101.21351,13.37809 101.21328,13.37837 101.21252,13.37851 101.21226,13.37881 101.21223,13.37933 101.21205,13.37977 101.21147,13.38028 101.21124,13.38066 101.21111,13.38103 101.21064,13.38135 101.21034,13.38178 101.2103,13.38206 101.21033,13.38212 101.21038,13.38222 101.2109,13.38228 101.21127,13.38244 101.21166,13.38263 101.21193,13.38292 101.21186,13.38325 101.21156,13.38344 101.21148,13.38347 101.21153,13.38371 101.21145,13.3838 101.21124,13.38374 101.21112,13.38393 101.21124,13.38422 101.21102,13.38447 101.21086,13.3846 101.21056,13.38477 101.21047,13.385 101.21072,13.38549 101.21072,13.38587 101.21072,13.3862 101.2109,13.38649 101.21105,13.38668 101.21102,13.38692 101.21095,13.387 101.21071,13.38722 101.21059,13.38738 101.21014,13.38763 101.20993,13.38784 101.21007,13.38805 101.21028,13.38825 101.21042,13.38883 101.21011,13.38928 101.20987,13.38948 101.20977,13.3899 101.2099,13.39025 101.21012,13.39053 101.21014,13.39085 101.20988,13.39108 101.20963,13.39125 101.20955,13.39144 101.20963,13.39193 101.20964,13.39227 101.20956,13.39254 101.20935,13.39278 101.20899,13.39287 101.20853,13.39296 101.20854,13.39337 101.20891,13.39352 101.20909,13.39384 101.20876,13.39449 101.20855,13.39485 101.20844,13.39525 101.20831,13.39534 101.20802,13.3954 101.2078,13.39563 101.20795,13.39589 101.20788,13.3961 101.2074,13.3964 101.2072,13.39681 101.20681,13.39719 101.20659,13.39746 101.20629,13.39773 101.20636,13.39803 101.20669,13.39814 101.20693,13.39854 101.20707,13.39919 101.20714,13.39963 101.20708,13.39997 101.20651,13.40024 101.20634,13.40033 101.20638,13.40065 101.20642,13.40094 101.20638,13.40149 101.20622,13.40175 101.20607,13.40188 101.20594,13.40228 101.20583,13.40277 101.20569,13.4031 101.20558,13.40337 101.20545,13.40348 101.20508,13.40393 101.20527,13.40421 101.20541,13.40469 101.20551,13.40531 101.20555,13.40568 101.20549,13.40627 101.20535,13.40657 101.20522,13.40686 101.20506,13.40704 101.20483,13.407 101.20471,13.40722 101.20502,13.40751 101.20519,13.40785 101.20528,13.40811 101.20572,13.40866 101.20614,13.40888 101.20631,13.40913 101.20616,13.4096 101.20616,13.40996 101.20637,13.41045 101.20652,13.41088 101.20666,13.4112 101.20678,13.41138 101.20663,13.41166 101.20663,13.41184 101.20653,13.41229 101.20619,13.41259 101.20588,13.41289 101.20585,13.41323 101.20588,13.41355 101.20598,13.41396 101.20643,13.4144 101.20668,13.41462 101.20717,13.41492 101.20752,13.41541 101.20764,13.41579 101.20751,13.41619 101.20721,13.41646 101.20685,13.41703 101.20663,13.41753 101.20638,13.41762 101.20614,13.41767 101.20623,13.41801 101.20649,13.41839 101.20677,13.41842 101.20686,13.41865 101.20706,13.41895 101.20698,13.41941 101.20744,13.41935 101.20784,13.41953 101.20818,13.41996 101.20835,13.42017 101.20857,13.42018 101.20867,13.42026 101.2086,13.42064 101.20828,13.42069 101.20805,13.42085 101.2082,13.42131 101.20828,13.42147 101.20839,13.42158 101.20889,13.42159 101.20899,13.42153 101.2091,13.42146 101.20936,13.42153 101.2094,13.42146 101.20948,13.42141 101.20958,13.42146 101.20962,13.42159 101.20965,13.42175 101.20977,13.42178 101.20996,13.42174 101.21008,13.42182 101.2102,13.42199 101.21028,13.42202 101.21042,13.42195 101.21069,13.42197 101.21068,13.4222 101.21047,13.4224 101.21054,13.42269 101.21072,13.42285 101.2111,13.42294 101.21148,13.42305 101.21192,13.42374 101.21198,13.42382 101.21211,13.42402 101.21216,13.42434 101.21224,13.42468 101.21238,13.42492 101.21239,13.42513 101.2123,13.42538 101.21256,13.42563 101.21273,13.42599 101.2131,13.42619 101.21325,13.42625 101.21347,13.42656 101.21358,13.42687 101.21381,13.42714 101.21408,13.42722 101.21443,13.42723 101.21481,13.42739 101.21515,13.4276 101.21559,13.42795 101.21595,13.42807 101.2166,13.42795 101.21702,13.42781 101.21711,13.42757 101.21735,13.42753 101.21755,13.42776 101.21773,13.42791 101.21833,13.42785 101.21867,13.428 101.21877,13.42822 101.2188,13.42857 101.21875,13.42867 101.21895,13.42889 101.21901,13.42904 101.21895,13.42925 101.2191,13.42948 101.21932,13.42953 101.21985,13.42946 101.22025,13.42961 101.22029,13.42984 101.22039,13.43013 101.2204,13.43033 101.22032,13.43061 101.22008,13.43073 101.21976,13.43074 101.21965,13.43082 101.21956,13.43099 101.2194,13.43133 101.21928,13.43142 101.21921,13.4316 101.21942,13.43183 101.21962,13.43201 101.21968,13.43235 101.21966,13.43264 101.21964,13.43376 101.21973,13.43417 101.21989,13.43465 101.21998,13.43515 101.22006,13.43537 101.22011,13.4356 101.21995,13.4359 101.21969,13.43613 101.21954,13.43622 101.21932,13.4363 101.21914,13.43658 101.21903,13.43692 101.21904,13.43716 101.21906,13.43741 101.21911,13.43763 101.21915,13.43789 101.21905,13.43806 101.21887,13.43825 101.21891,13.43849 101.21896,13.43875 101.21898,13.43897 101.21895,13.43914 101.21873,13.43924 101.21848,13.43937 101.21838,13.43951 101.21841,13.43967 101.21839,13.43978 101.21826,13.43982 101.21795,13.44 101.21799,13.44027 101.21814,13.44055 101.2183,13.44079 101.2186,13.441 101.21873,13.44111 101.21904,13.44125 101.21926,13.44163 101.21934,13.44187 101.21955,13.44198 101.21967,13.44214 101.21959,13.44235 101.21949,13.44263 101.21945,13.44288 101.21898,13.44299 101.2189,13.44323 101.21906,13.44354 101.21905,13.44369 101.21905,13.44404 101.21891,13.44429 101.21872,13.44455 101.21871,13.44468 101.2186,13.4451 101.21849,13.44519 101.21824,13.44521 101.21791,13.44532 101.21782,13.44544 101.2174,13.44555 101.21732,13.44582 101.21728,13.44597 101.21726,13.44605 101.21717,13.44622 101.21717,13.44642 101.21731,13.44664 101.2175,13.44688 101.21756,13.44706 101.21738,13.44721 101.21727,13.44729 101.21731,13.44754 101.21756,13.44765 101.21761,13.44777 101.21749,13.4481 101.2174,13.44826 101.21714,13.44844 101.21673,13.44834 101.21649,13.44852 101.21659,13.44867 101.21686,13.44877 101.21697,13.44883 101.21692,13.44906 101.21675,13.44917 101.21654,13.44915 101.21633,13.44902 101.21602,13.44877 101.21571,13.44865 101.21559,13.44883 101.21583,13.44911 101.21587,13.44932 101.21572,13.44937 101.21552,13.44944 101.2153,13.4497 101.21514,13.45003 101.21502,13.45015 101.21462,13.45026 101.2144,13.45054 101.21439,13.45076 101.21449,13.45118 101.21403,13.45153 101.21382,13.45188 101.21365,13.4527 101.21357,13.453 101.21371,13.45339 101.21364,13.45379 101.2136,13.45401 101.21359,13.45423 101.21374,13.45439 101.21376,13.45465 101.21359,13.4551 101.21347,13.45539 101.21339,13.45574 101.21343,13.45617 101.21323,13.45656 101.21284,13.45659 101.21234,13.45664 101.21209,13.45672 101.21196,13.45715 101.21169,13.45752 101.21156,13.45769 101.21169,13.45796 101.21183,13.45808 101.21186,13.45827 101.21169,13.45846 101.21141,13.45862 101.21111,13.45874 101.21081,13.45877 101.21042,13.45899 101.21016,13.45882 101.21005,13.45847 101.20986,13.45827 101.20966,13.45816 101.20947,13.45834 101.20941,13.45862 101.20935,13.45877 101.2091,13.45881 101.20889,13.45883 101.20875,13.45878 101.20882,13.45861 101.20882,13.45847 101.20866,13.45817 101.20854,13.45814 101.2084,13.45827 101.2083,13.45846 101.20804,13.45882 101.20788,13.4588 101.20785,13.45867 101.20792,13.4585 101.20782,13.45836 101.2076,13.45828 101.20742,13.45826 101.20741,13.4585 101.20752,13.45868 101.20758,13.4589 101.20751,13.45913 101.20737,13.45919 101.20725,13.45918 101.20708,13.4592 101.20702,13.45942 101.2071,13.45969 101.20726,13.45984 101.20756,13.4599 101.20769,13.46 101.20761,13.46017 101.20745,13.4602 101.20731,13.4602 101.20723,13.46038 101.20718,13.46066 101.20706,13.46092 101.20692,13.46109 101.2069,13.46134 101.20679,13.46151 101.2066,13.46152 101.20639,13.46145 101.20615,13.46143 101.20594,13.46156 101.20581,13.46152 101.20566,13.46136 101.20551,13.46118 101.20538,13.46115 101.20528,13.4614 101.20522,13.46163 101.20515,13.4617 101.20503,13.46168 101.20475,13.46166 101.20467,13.46179 101.20469,13.46205 101.20476,13.46243 101.20477,13.4626 101.2047,13.46272 101.20458,13.46271 101.2044,13.46267 101.20433,13.46265 101.20417,13.46276 101.20424,13.46298 101.20426,13.46321 101.20411,13.46326 101.20394,13.46328 101.20373,13.46343 101.20376,13.46364 101.20382,13.46381 101.20374,13.46398 101.20359,13.46408 101.20345,13.46424 101.20338,13.4644 101.20341,13.46468 101.20349,13.46483 101.20352,13.46497 101.20333,13.46504 101.20314,13.46506 101.20287,13.46497 101.20274,13.46492 101.20255,13.46481 101.20242,13.46481 101.20226,13.46498 101.20211,13.46511 101.20194,13.46517 101.20182,13.46509 101.20179,13.46492 101.20174,13.46485 101.20169,13.46478 101.20148,13.46495 101.2012,13.46507 101.20096,13.46517 101.20072,13.46534 101.2005,13.46551 101.20054,13.46568</coordinates></LineString></Placemark><Placemark><name>ลำน้ำสายหลักตะวันออก (จากถนน 331)</name><Style><LineStyle><color>ffff7700</color><width>4</width></LineStyle></Style><LineString><coordinates>101.27499,13.40351 101.27471,13.40345 101.27399,13.40313 101.2736,13.40307 101.27322,13.40326 101.27292,13.40328 101.27268,13.40314 101.27246,13.40291 101.27202,13.40283 101.27131,13.40296 101.27063,13.40319 101.27015,13.4035 101.2697,13.4038 101.26897,13.40381 101.26813,13.4039 101.26745,13.40391 101.26698,13.40385 101.26644,13.40387 101.26608,13.40411 101.26574,13.40417 101.26521,13.40414 101.265,13.40377 101.26484,13.40343 101.26458,13.40316 101.26416,13.40296 101.26381,13.40282 101.26329,13.40271 101.263,13.40276 101.26281,13.4031 101.26257,13.40325 101.26233,13.40333 101.26223,13.40361 101.26209,13.40378 101.26174,13.40386 101.26157,13.40401 101.2615,13.40424 101.26149,13.40446 101.26118,13.40452 101.26086,13.4047 101.26056,13.40508 101.26047,13.40531 101.26029,13.40572 101.26028,13.40592 101.26014,13.40614 101.25984,13.40627 101.25967,13.40656 101.25943,13.40676 101.25904,13.40681 101.25872,13.40706 101.25856,13.40724 101.25828,13.40759 101.25809,13.4077 101.2575,13.40757 101.25731,13.40752 101.25703,13.40781 101.25705,13.40808 101.25691,13.40835 101.25633,13.40849 101.25579,13.40846 101.25519,13.40836 101.25482,13.40828 101.25443,13.40851 101.25414,13.40873 101.25384,13.40921 101.25372,13.40961 101.25363,13.41003 101.25391,13.4105 101.25414,13.41071 101.25421,13.41108 101.25407,13.41144 101.25389,13.41182 101.2536,13.41215 101.25322,13.41233 101.253,13.41242 101.25283,13.41262 101.25285,13.41298 101.25284,13.4132 101.2525,13.41299 101.25229,13.41286 101.2521,13.41316 101.25195,13.41357 101.25168,13.41379 101.25146,13.41388 101.2512,13.41404 101.25121,13.41434 101.25099,13.41449 101.25068,13.41474 101.25064,13.41507 101.25062,13.41533 101.24998,13.41555 101.24946,13.41586 101.24903,13.41595 101.24881,13.41616 101.24856,13.41654 101.24825,13.41634 101.24795,13.4162 101.24759,13.41601 101.24744,13.41571 101.24712,13.41568 101.24715,13.41608 101.24731,13.41633 101.24731,13.41661 101.24697,13.4167 101.24662,13.41669 101.24616,13.41693 101.24584,13.41706 101.24541,13.41709 101.24491,13.4172 101.24472,13.41756 101.24498,13.41764 101.2453,13.41784 101.24505,13.41809 101.24472,13.41815 101.24443,13.41818 101.24396,13.41799 101.24349,13.41777 101.243,13.41769 101.24247,13.41805 101.24235,13.41842 101.24187,13.41848 101.24148,13.41842 101.2411,13.41852 101.24089,13.41825 101.24045,13.41825 101.23995,13.41844 101.23971,13.4186 101.23976,13.41884 101.23998,13.41902 101.24008,13.41924 101.23983,13.4195 101.23953,13.4197 101.23932,13.41993 101.23884,13.41994 101.23866,13.41997 101.2388,13.42023 101.23919,13.42052 101.2395,13.42076 101.23947,13.42108 101.23917,13.42109 101.23867,13.42093 101.23825,13.4212 101.23797,13.42147 101.23772,13.42184 101.23738,13.4221 101.23699,13.42209 101.23693,13.4223 101.23716,13.42261 101.23732,13.42275 101.23711,13.42297 101.23677,13.42281 101.23667,13.42252 101.23663,13.42221 101.23649,13.42214 101.23631,13.42235 101.2364,13.42256 101.23647,13.42283 101.23639,13.42303 101.23612,13.42305 101.23578,13.42314 101.23575,13.42341 101.23544,13.4236 101.23512,13.4239 101.23481,13.42438 101.23453,13.42475 101.23431,13.42438 101.23406,13.42406 101.23365,13.42417 101.23333,13.42452 101.23313,13.42502 101.23297,13.42541 101.23257,13.42595 101.23213,13.4262 101.23176,13.42644 101.23189,13.42676 101.23194,13.42713 101.23163,13.4274 101.2313,13.42727 101.23074,13.42703 101.23056,13.42724 101.23076,13.42746 101.23127,13.42763 101.231,13.42799 101.23057,13.42846 101.23029,13.42885 101.23015,13.42896 101.23001,13.42889 101.22992,13.42874 101.22962,13.42854 101.22941,13.42851 101.22919,13.42868 101.22919,13.42902 101.22919,13.4292 101.229,13.42937 101.22878,13.42944 101.22863,13.42939 101.22849,13.42915 101.22841,13.42901 101.22815,13.42892 101.22794,13.42895 101.22789,13.42924 101.22792,13.42954 101.22799,13.42974 101.22795,13.42995 101.22799,13.43019 101.22791,13.43037 101.22773,13.4304 101.227,13.43006 101.22646,13.43005 101.22611,13.43 101.22574,13.43006 101.22558,13.43043 101.22551,13.43072 101.2254,13.43087 101.22519,13.43066 101.22511,13.43043 101.2249,13.43022 101.22473,13.43045 101.22481,13.43074 101.22489,13.43103 101.22473,13.43124 101.22449,13.43114 101.22436,13.43082 101.22425,13.43056 101.22397,13.43064 101.22392,13.43101 101.22389,13.43129 101.22376,13.43144 101.22333,13.43148 101.2228,13.43146 101.22249,13.43167 101.22259,13.43197 101.22296,13.43213 101.22329,13.43218 101.22315,13.43246 101.22294,13.43263 101.2228,13.43289 101.2229,13.4332 101.22305,13.43347 101.22288,13.43375 101.22279,13.43384 101.22285,13.43407 101.22283,13.43428 101.2224,13.43438 101.22178,13.43447 101.22158,13.43467 101.22157,13.43494 101.22165,13.43514 101.22149,13.43531 101.22127,13.43531 101.22101,13.43566 101.2209,13.43567 101.22051,13.43594 101.2206,13.43615 101.22096,13.43615 101.22132,13.43595 101.22158,13.43603 101.22156,13.43634 101.22105,13.43652 101.22065,13.43654 101.22051,13.4366 101.2202,13.43681 101.21991,13.43714 101.21989,13.43742 101.21994,13.43749 101.2205,13.43753 101.22063,13.43783 101.22065,13.43801 101.22057,13.43842 101.22056,13.43874 101.22068,13.43924 101.22061,13.43945 101.22027,13.43924 101.22023,13.43958 101.22047,13.44012 101.22087,13.44003 101.22117,13.43953 101.22143,13.43932 101.22175,13.43944 101.22182,13.43971 101.22219,13.43975 101.22258,13.43989 101.22274,13.44015 101.22261,13.44044 101.22227,13.44066 101.22188,13.44071 101.22159,13.44095 101.2215,13.44136 101.22148,13.44174 101.22145,13.44204 101.22127,13.4422 101.22096,13.44227 101.22086,13.44251 101.22083,13.44285 101.22061,13.44317 101.22037,13.44319 101.22,13.44324 101.21994,13.44352 101.22006,13.44388 101.2204,13.44401 101.22044,13.44448 101.22061,13.44495 101.2209,13.44521 101.22118,13.44588 101.22113,13.44643 101.22064,13.44731 101.2204,13.44737 101.22011,13.4471 101.22002,13.44691 101.2197,13.44693 101.21963,13.44727 101.21993,13.44749 101.21968,13.44762 101.21944,13.44758 101.21934,13.44769 101.21925,13.44819 101.21922,13.44851 101.21949,13.4488 101.21963,13.44922 101.21967,13.44949 101.21971,13.44978 101.22023,13.44985 101.22043,13.44988 101.22027,13.45015 101.21996,13.45048 101.21964,13.45037 101.21945,13.45018 101.21907,13.45057 101.21899,13.45101 101.21926,13.4512 101.21939,13.45141 101.21936,13.45165 101.21956,13.45196 101.21937,13.45216 101.21907,13.45211 101.2188,13.45227 101.21859,13.4525 101.21815,13.45267 101.21763,13.45279 101.21718,13.453 101.21708,13.45323 101.21682,13.45342 101.2166,13.45384 101.21624,13.45418 101.21587,13.45444 101.21589,13.45475 101.21596,13.45496 101.21553,13.45518 101.21536,13.45539 101.215,13.45539 101.21469,13.45569 101.21459,13.45593 101.21487,13.45617 101.21465,13.45642 101.21419,13.45619 101.21377,13.45608 101.21368,13.45638 101.21352,13.45663 101.21323,13.45656 101.21323,13.45714 101.2135,13.45762 101.21372,13.45793 101.21368,13.45841 101.21373,13.45866 101.21343,13.45898 101.21349,13.45927 101.21358,13.45941 101.2132,13.45976 101.21288,13.45985 101.21251,13.46015 101.21228,13.46044 101.21213,13.46079 101.21223,13.46154 101.21241,13.4619 101.21243,13.46227 101.21232,13.46256 101.21227,13.46272 101.21198,13.46299 101.21179,13.46333 101.21169,13.46362 101.21174,13.46409 101.21155,13.4642 101.21139,13.46423 101.21119,13.46406 101.21112,13.46331 101.21104,13.46239 101.21093,13.46211 101.21061,13.46226 101.21044,13.46283 101.21024,13.46287 101.20992,13.46259 101.20968,13.4624 101.2097,13.46193 101.20891,13.46184 101.20836,13.4617 101.20809,13.46195 101.20794,13.4623 101.20758,13.46252 101.20733,13.46257 101.2069,13.4629 101.20683,13.46319 101.20683,13.46348 101.20647,13.46384 101.20626,13.46418 101.20609,13.46433 101.20561,13.46401 101.20534,13.46396 101.20511,13.46431 101.20531,13.46463 101.20535,13.46478 101.20534,13.46489 101.20511,13.46499 101.2049,13.46492 101.20476,13.46503 101.20469,13.46521 101.20454,13.46544 101.20452,13.46559 101.20443,13.46566 101.20423,13.46558 101.20413,13.46547 101.20415,13.46531 101.20389,13.4653 101.20379,13.46542 101.20377,13.46561 101.2037,13.46582 101.20347,13.46592 101.20321,13.46583 101.20308,13.46549 101.20305,13.46535 101.20294,13.4652 101.20273,13.46533 101.20266,13.46549 101.20248,13.46585 101.20159,13.46568 101.20128,13.46554 101.20099,13.46548 101.2006,13.46559 101.20054,13.46568</coordinates></LineString></Placemark><Placemark><name>ลำน้ำสายหลักตะวันออก (จากถนน 331)</name><Style><LineStyle><color>ffff7700</color><width>4</width></LineStyle></Style><LineString><coordinates>101.20054,13.46568 101.20046,13.46581 101.20045,13.4661 101.20021,13.46652 101.20019,13.46656 101.19931,13.4664 101.19884,13.46602 101.19812,13.46592 101.19741,13.46591 101.19711,13.46604 101.19692,13.46622 101.19669,13.4661 101.19684,13.46581 101.19715,13.46541 101.19704,13.46511 101.19682,13.46499 101.19636,13.46486 101.19627,13.46505 101.19629,13.46528 101.19609,13.46545 101.19584,13.46534 101.19569,13.46518 101.19548,13.46508 101.19521,13.46506 101.19506,13.46533 101.19513,13.46557 101.1951,13.46586 101.19463,13.46597 101.1942,13.46599 101.19395,13.46611 101.1937,13.46627 101.19348,13.46613 101.19349,13.46559 101.19312,13.4653 101.19279,13.46536 101.1925,13.46561 101.19262,13.46595 101.19272,13.46626 101.19275,13.46664 101.19292,13.46696 101.19295,13.46711 101.19279,13.46732 101.19254,13.4674 101.19209,13.46702 101.19173,13.46699 101.19139,13.46702 101.19127,13.46731 101.19127,13.46761 101.19094,13.4677 101.1904,13.46754 101.19008,13.46776 101.18978,13.46814 101.18956,13.46855 101.18931,13.4686 101.189,13.46858 101.18873,13.4688 101.1889,13.46918 101.18924,13.46932 101.18963,13.46939 101.18951,13.46983 101.1892,13.47011 101.18867,13.47016 101.18828,13.47025 101.18809,13.47046 101.1882,13.47078 101.18858,13.471 101.18909,13.47158 101.18915,13.47212 101.18895,13.47251 101.18849,13.4726 101.18791,13.47239 101.18777,13.4726 101.18807,13.47295 101.1887,13.47323 101.18906,13.47341 101.18946,13.47372 101.18963,13.47406 101.18998,13.47414 101.19024,13.47416 101.19029,13.47445 101.19,13.47473 101.18962,13.47485 101.18937,13.47505 101.18915,13.47523 101.18853,13.4749 101.18808,13.47444 101.18748,13.47453 101.18732,13.47497 101.1877,13.4752 101.18773,13.47529 101.18779,13.47551 101.18768,13.4759 101.18789,13.47639 101.188,13.47656 101.18793,13.47681 101.18779,13.47686 101.18731,13.47684 101.18734,13.47734 101.18731,13.4776 101.18742,13.47779 101.18784,13.47776 101.18805,13.47807 101.1879,13.47859 101.18794,13.47879 101.18764,13.47911 101.18745,13.47922 101.18714,13.47962 101.18698,13.47985 101.18643,13.4797 101.18629,13.4797 101.1857,13.47976 101.18504,13.47993 101.18469,13.4804 101.18474,13.48057 101.1849,13.4808</coordinates></LineString></Placemark><Placemark><name>ลำน้ำสายหลักตะวันออก (จากถนน 331)</name><Style><LineStyle><color>ffff7700</color><width>4</width></LineStyle></Style><LineString><coordinates>101.1849,13.4808 101.18519,13.48089 101.18526,13.48101 101.18509,13.48149 101.18466,13.48204 101.18457,13.48221 101.1844,13.48221 101.18386,13.48224 101.1836,13.4825 101.18363,13.48269 101.18394,13.48292 101.18417,13.48326 101.18409,13.48344 101.18377,13.48352 101.18318,13.48351 101.18284,13.48383 101.18282,13.48409 101.18289,13.48442 101.18283,13.48459 101.18242,13.48486 101.18219,13.4852 101.18214,13.48547 101.18219,13.48557 101.18226,13.48562 101.18247,13.48562 101.18342,13.48527 101.18362,13.48526 101.18388,13.48544 101.18394,13.48572 101.18396,13.4861 101.18382,13.48644 101.1836,13.48649 101.1831,13.48648 101.18255,13.48649 101.1823,13.48673 101.1822,13.48742 101.18237,13.48786 101.18248,13.48822 101.18241,13.48833 101.18234,13.48843 101.182,13.48852 101.18167,13.48858 101.18135,13.48913 101.18134,13.48947 101.18156,13.49013 101.18147,13.4904 101.18121,13.49075 101.18079,13.49122 101.18024,13.49197 101.18019,13.49229 101.18048,13.49279 101.1807,13.49306 101.18099,13.49346 101.18112,13.49378 101.18102,13.49422 101.18068,13.49446 101.18047,13.49487 101.18023,13.4953 101.18013,13.4954 101.17935,13.49506 101.17874,13.4949 101.1784,13.49499 101.17802,13.49514 101.17774,13.49542 101.17798,13.4956 101.17827,13.49578 101.17828,13.49599 101.17808,13.49622 101.17785,13.49639 101.17762,13.49702 101.17736,13.49716 101.17712,13.49711 101.17682,13.49726 101.17648,13.49748 101.17638,13.49757 101.17615,13.49759 101.17593,13.49783 101.17594,13.49803 101.17601,13.49822 101.17612,13.49838 101.17634,13.49853 101.17656,13.49865 101.17666,13.49882 101.17668,13.49894 101.17663,13.49903 101.17653,13.49908 101.17615,13.49917 101.176,13.49917 101.17581,13.49912 101.17565,13.49919 101.17553,13.49927 101.17545,13.49939 101.17547,13.4995 101.1755,13.49968 101.17541,13.50001 101.17535,13.50015 101.1752,13.50027 101.17504,13.50031 101.17488,13.50032 101.1746,13.50025 101.17447,13.50018 101.17424,13.50013 101.174,13.50022 101.1739,13.5004 101.17378,13.50056 101.17356,13.5007 101.17332,13.50076 101.17321,13.50078 101.17298,13.50085 101.173,13.50105 101.17326,13.50159 101.17355,13.50192 101.17346,13.50211 101.17338,13.50245 101.17345,13.50279 101.17376,13.50298 101.17391,13.50313 101.17402,13.50332 101.17424,13.50342 101.17444,13.50366 101.17446,13.50385 101.17441,13.50405 101.17431,13.50416 101.17413,13.50436 101.17408,13.50447 101.17409,13.50459 101.17409,13.50475 101.17444,13.50504 101.17481,13.5053 101.1749,13.50553 101.17478,13.50584 101.1746,13.50599 101.17433,13.50601 101.17407,13.50598 101.17384,13.50607 101.17364,13.50632 101.17333,13.5064 101.17304,13.50655 101.1727,13.50688 101.17256,13.50735 101.17244,13.50798 101.17246,13.50839 101.17247,13.50873</coordinates></LineString></Placemark><Placemark><name>ลำน้ำสายหลักตะวันออก (จากถนน 331)</name><Style><LineStyle><color>ffff7700</color><width>4</width></LineStyle></Style><LineString><coordinates>101.27501,13.29363 101.27468,13.29389 101.27381,13.29519 101.27314,13.29615 101.2731,13.29656 101.27323,13.29704 101.27328,13.2973 101.27354,13.29756 101.27371,13.2977 101.27359,13.29801 101.27346,13.29836 101.27346,13.29846 101.2734,13.29873 101.27325,13.29897 101.27305,13.29901 101.27289,13.29881 101.27267,13.29891 101.27241,13.29899 101.27217,13.29909 101.27182,13.29912 101.27155,13.29916 101.27151,13.29948 101.27124,13.2994 101.27046,13.29939 101.27033,13.29939 101.27019,13.29947 101.27014,13.29974 101.26988,13.29993 101.26956,13.30005 101.2693,13.30032 101.26942,13.30067 101.26952,13.30095 101.26963,13.30119 101.26978,13.30134 101.26969,13.30154 101.26941,13.30163 101.26925,13.30174 101.26949,13.30196 101.26984,13.30215 101.26978,13.30232 101.26949,13.3023 101.26935,13.30234 101.26937,13.3026 101.26943,13.30284 101.26938,13.303 101.26926,13.30309 101.26933,13.30346 101.26949,13.30389 101.26956,13.30431 101.26938,13.30477 101.26927,13.305 101.26907,13.30512 101.26879,13.30521 101.26879,13.30537 101.26891,13.30553 101.26892,13.30582 101.26898,13.30621 101.2691,13.30654 101.26898,13.30652 101.26881,13.30658 101.26883,13.30671 101.26911,13.30674 101.26929,13.3068 101.2695,13.30696 101.26947,13.30706 101.26947,13.30719 101.26954,13.3073 101.26962,13.30745 101.2697,13.30755 101.26984,13.30749 101.26981,13.30741 101.26979,13.30726 101.26996,13.30716 101.27013,13.30715 101.27014,13.30732 101.27012,13.30763 101.27032,13.30793 101.27035,13.30829 101.27021,13.30846 101.27013,13.30875 101.26999,13.30879 101.26984,13.3086 101.26968,13.30871 101.26935,13.30885 101.26908,13.30908 101.269,13.30942 101.26899,13.3099 101.26904,13.31018 101.26926,13.31032 101.26928,13.31056 101.26924,13.31078 101.26919,13.31095 101.26884,13.31142 101.26841,13.31198 101.26822,13.31257 101.26806,13.31343 101.26761,13.31371 101.26748,13.31367 101.26694,13.31366 101.26646,13.31388 101.2664,13.31403 101.26639,13.31434 101.2664,13.3147 101.26635,13.3149 101.26577,13.31507 101.2658,13.31542 101.26584,13.31555 101.26586,13.31574 101.26552,13.31582 101.265,13.3159 101.26468,13.31609 101.26433,13.31627 101.2639,13.31629 101.26336,13.31625 101.2629,13.31648 101.26274,13.3166 101.26261,13.31681 101.26243,13.31745 101.26247,13.31784 101.26254,13.31827 101.2624,13.31851 101.2623,13.31869 101.26226,13.31891 101.26201,13.31915 101.26177,13.31941 101.26182,13.31962 101.26197,13.31974 101.26203,13.31993 101.2618,13.32002 101.26158,13.3201 101.26149,13.32033 101.26127,13.32044 101.261,13.32055 101.26059,13.32058 101.26037,13.32037 101.26009,13.32043 101.26006,13.32079 101.25967,13.32079 101.25933,13.3208 101.259,13.32081 101.25898,13.32102 101.25862,13.32125 101.25849,13.32144 101.2583,13.32167 101.25803,13.32175 101.2578,13.32155 101.25774,13.32157 101.25755,13.32196 101.25751,13.32216 101.25728,13.32228 101.25697,13.32218 101.25675,13.32224 101.25643,13.32239 101.25621,13.32247 101.25595,13.3225 101.25587,13.3224 101.25586,13.32222 101.25577,13.32206 101.25564,13.32211 101.25555,13.3223 101.25535,13.32242 101.25529,13.32267 101.25525,13.32295 101.25529,13.32324 101.25514,13.32342 101.25491,13.32337 101.25468,13.32346 101.25447,13.32337 101.2544,13.3232 101.2542,13.32307 101.25398,13.32309 101.254,13.32326 101.25385,13.32337 101.25354,13.32332 101.25317,13.32334 101.25273,13.32329 101.25264,13.32345 101.25247,13.32358 101.25242,13.32368 101.25232,13.32379 101.25216,13.32366 101.25201,13.32367 101.2518,13.3238 101.25165,13.32401 101.25186,13.3244 101.25177,13.32474 101.25137,13.32494 101.25118,13.32521 101.25109,13.32544 101.25075,13.3256 101.25039,13.32578 101.25005,13.32582 101.2499,13.32573 101.24976,13.32563 101.24962,13.32587 101.24959,13.32622 101.24938,13.32635 101.24914,13.32646 101.2487,13.32645 101.2485,13.32638 101.24822,13.32651 101.24785,13.32678 101.24753,13.32714 101.24753,13.32731 101.24737,13.32743 101.24727,13.32736 101.24729,13.32721 101.24721,13.32717 101.24688,13.32725 101.24659,13.32735 101.24634,13.32737 101.24611,13.32721 101.24595,13.32713 101.24557,13.32719 101.2453,13.3272 101.24503,13.32705 101.24472,13.32698 101.24457,13.32707 101.24435,13.32706 101.24423,13.32693 101.2441,13.3268 101.24387,13.32684 101.24355,13.32685 101.24337,13.32693 101.24307,13.32698 101.24286,13.32705 101.24262,13.32692 101.24255,13.32682 101.24258,13.32667 101.24259,13.32659 101.24253,13.32647</coordinates></LineString></Placemark><Placemark><name>ห้วยเกวียน (ด้านตะวันตกของเมือง)</name><Style><LineStyle><color>ff00a5ff</color><width>5</width></LineStyle></Style><LineString><coordinates>101.18273,13.42277 101.18277,13.42284 101.18297,13.42323 101.18307,13.42358 101.18311,13.424 101.18318,13.42431 101.18335,13.42457 101.18352,13.4248 101.1836,13.42508 101.18377,13.42529 101.18402,13.42553 101.18407,13.42562 101.18406,13.42581 101.18403,13.42604 101.18388,13.42677 101.18374,13.42706 101.18328,13.42711 101.1827,13.42718 101.18243,13.42726 101.18227,13.42737 101.18205,13.42754 101.18206,13.42785 101.18198,13.42809 101.18172,13.42833 101.18142,13.42874 101.18127,13.42898 101.18102,13.42915 101.18067,13.42931 101.18038,13.42945 101.18019,13.42956 101.1794,13.42928 101.17881,13.42899 101.17821,13.42889 101.17757,13.42876 101.17729,13.42883 101.17702,13.42901 101.1769,13.4291 101.17671,13.42938 101.17674,13.42963 101.17694,13.43006 101.17686,13.43028 101.1767,13.4305 101.17653,13.43064 101.1763,13.4307 101.17613,13.43066 101.17595,13.43064 101.17578,13.43076 101.1756,13.43106 101.17542,13.43119 101.17512,13.43123 101.17487,13.43143 101.17459,13.43151 101.17436,13.43173 101.17422,13.43194 101.17415,13.43226 101.17383,13.43236 101.17352,13.43268 101.17348,13.43291 101.17342,13.43313 101.17318,13.43329 101.1727,13.43332 101.17249,13.43342 101.17239,13.43363 101.17225,13.43401 101.17191,13.43395 101.17164,13.43397 101.17137,13.43427 101.17095,13.43435 101.17081,13.43445 101.17066,13.43463 101.17062,13.4348 101.17053,13.43507 101.17016,13.43507 101.1697,13.43512 101.16931,13.43514 101.16898,13.4352 101.16886,13.4353 101.16878,13.43555 101.16862,13.43568 101.16843,13.43555 101.16817,13.43547 101.16758,13.43552 101.16733,13.43574 101.16725,13.43609 101.16741,13.4363 101.16736,13.43667 101.16718,13.43694 101.16673,13.43717 101.16652,13.43754 101.16631,13.43819 101.16621,13.43855 101.16597,13.43883 101.16568,13.43934 101.16549,13.43978 101.16518,13.43997 101.16504,13.43986 101.16469,13.43972 101.16453,13.4398 101.16418,13.44006 101.16395,13.44031 101.16399,13.44061 101.16397,13.44079 101.1639,13.44085 101.16377,13.44105 101.16356,13.44136 101.16325,13.44168 101.16308,13.44193 101.16302,13.44222 101.16276,13.44233 101.16244,13.44252 101.16238,13.44271 101.16251,13.443 101.16253,13.44366 101.16253,13.44438 101.16253,13.44474 101.16211,13.44484 101.16126,13.445 101.1609,13.44493 101.16006,13.44515 101.15925,13.44535 101.15871,13.44531 101.15849,13.44596 101.15844,13.44677 101.15891,13.44755 101.15871,13.44778 101.15869,13.44801 101.15885,13.44815 101.15905,13.44822 101.159,13.4485 101.1587,13.44854 101.15852,13.4486 101.15817,13.44895 101.15807,13.44909 101.15822,13.44971 101.15804,13.45 101.15863,13.45149 101.15859,13.45166 101.15851,13.45169 101.15845,13.45199 101.15838,13.45261 101.1584,13.45283 101.15827,13.45333 101.15811,13.45341 101.15762,13.45334 101.15763,13.45351 101.15777,13.45429 101.1578,13.45477 101.15804,13.45513 101.15813,13.45562 101.15793,13.45641 101.15814,13.45694 101.15817,13.45731 101.1581,13.45816 101.15788,13.45817 101.15788,13.45913 101.15786,13.4594 101.15784,13.45967 101.1578,13.4598 101.15704,13.45968 101.1566,13.45971 101.15662,13.45988 101.15683,13.46107 101.15669,13.46118 101.15656,13.46168 101.1567,13.46177 101.15659,13.462 101.15677,13.46216 101.15677,13.46238 101.15654,13.46246 101.15621,13.46242 101.15598,13.46246 101.15566,13.4624 101.15553,13.46279 101.15585,13.46296 101.15569,13.46345 101.15549,13.46377 101.15537,13.46412 101.1555,13.46418 101.15547,13.46435 101.15546,13.46455 101.15537,13.46465 101.15525,13.46448 101.15516,13.46434 101.15461,13.46429 101.15432,13.46428 101.15419,13.46458 101.15374,13.46446 101.15355,13.4649 101.1533,13.46498 101.15323,13.46523 101.15324,13.46547 101.1539,13.46672 101.15431,13.46744 101.15411,13.46752 101.15388,13.46764 101.15367,13.46823 101.1535,13.46889</coordinates></LineString></Placemark><Placemark><name>สายจากอ่างบ้านบึง (ประมาณจาก DEM)</name><Style><LineStyle><color>ff8800aa</color><width>3</width></LineStyle></Style><LineString><coordinates>101.13375,13.24792 101.13458,13.24875 101.13542,13.24958 101.13542,13.25042 101.13625,13.25125 101.13625,13.25208 101.13708,13.25292 101.13708,13.25375 101.13792,13.25458 101.13875,13.25458 101.13958,13.25458 101.14042,13.25458 101.14125,13.25542 101.14208,13.25625 101.14292,13.25708 101.14375,13.25792 101.14458,13.25875 101.14542,13.25875 101.14625,13.25958 101.14708,13.25958 101.14792,13.26042 101.14875,13.26125 101.14958,13.26208 101.14958,13.26292 101.14958,13.26375 101.15042,13.26458 101.15042,13.26542 101.15125,13.26625 101.15208,13.26708 101.15292,13.26792 101.15375,13.26792 101.15458,13.26875 101.15542,13.26958 101.15625,13.27042 101.15625,13.27125 101.15625,13.27208 101.15625,13.27292 101.15542,13.27375 101.15542,13.27458 101.15542,13.27542 101.15542,13.27625 101.15542,13.27708 101.15625,13.27792 101.15625,13.27875 101.15625,13.27958 101.15625,13.28042 101.15625,13.28125 101.15708,13.28208 101.15708,13.28292 101.15708,13.28375 101.15708,13.28458 101.15792,13.28542 101.15792,13.28625 101.15792,13.28708 101.15792,13.28792 101.15875,13.28875 101.15875,13.28958 101.15875,13.29042 101.15875,13.29125 101.15958,13.29208 101.15958,13.29292 101.15958,13.29375 101.15958,13.29458 101.15958,13.29542 101.16042,13.29625 101.16042,13.29708 101.16125,13.29792 101.16208,13.29875 101.16292,13.29958 101.16292,13.30042 101.16208,13.30125 101.16125,13.30208 101.16208,13.30292 101.16292,13.30375 101.16292,13.30458 101.16375,13.30542 101.16292,13.30625 101.16292,13.30708 101.16292,13.30792 101.16375,13.30875 101.16458,13.30958 101.16542,13.31042 101.16542,13.31125 101.16458,13.31208 101.16458,13.31292 101.16458,13.31375 101.16458,13.31458 101.16542,13.31542 101.16625,13.31625 101.16708,13.31625 101.16792,13.31708 101.16792,13.31792 101.16792,13.31875 101.16792,13.31958 101.16792,13.32042 101.16792,13.32125 101.16792,13.32208 101.16875,13.32292 101.16875,13.32375 101.16958,13.32458 101.17042,13.32542 101.17125,13.32625 101.17208,13.32708 101.17292,13.32792 101.17292,13.32875 101.17208,13.32958 101.17125,13.33042 101.17125,13.33125 101.17208,13.33208 101.17292,13.33292 101.17375,13.33375 101.17458,13.33458 101.17458,13.33542 101.17542,13.33625 101.17625,13.33625 101.17708,13.33708 101.17792,13.33708 101.17875,13.33792 101.17958,13.33875 101.18042,13.33958 101.18125,13.34042 101.18208,13.34125 101.18292,13.34125 101.18375,13.34125 101.18458,13.34125 101.18542,13.34208 101.18625,13.34292 101.18708,13.34375 101.18792,13.34375 101.18875,13.34458 101.18958,13.34542 101.19042,13.34625 101.19042,13.34708 101.19125,13.34792 101.19208,13.34875 101.19292,13.34875 101.19375,13.34875 101.19458,13.34958 101.19458,13.35042 101.19542,13.35125 101.19542,13.35208 101.19542,13.35292 101.19542,13.35375 101.19458,13.35458 101.19542,13.35542 101.19625,13.35625 101.19625,13.35708 101.19625,13.35792 101.19542,13.35875 101.19542,13.35958 101.19458,13.36042 101.19375,13.36125 101.19375,13.36208 101.19292,13.36292 101.19208,13.36375 101.19125,13.36458 101.19208,13.36542 101.19125,13.36625 101.19042,13.36708 101.18958,13.36792 101.18875,13.36875 101.18792,13.36958 101.18708,13.37042 101.18792,13.37125 101.18708,13.37208 101.18708,13.37292 101.18708,13.37375 101.18792,13.37458 101.18792,13.37542 101.18792,13.37625 101.18875,13.37708 101.18875,13.37792 101.18792,13.37875 101.18792,13.37958 101.18708,13.38042 101.18792,13.38125 101.18792,13.38208 101.18708,13.38292 101.18625,13.38375 101.18542,13.38458 101.18542,13.38542 101.18542,13.38625 101.18542,13.38708 101.18542,13.38792 101.18458,13.38875 101.18458,13.38958 101.18375,13.39042 101.18292,13.39125 101.18292,13.39208 101.18292,13.39292 101.18208,13.39375 101.18208,13.39458 101.18208,13.39542 101.18125,13.39625 101.18042,13.39708 101.17958,13.39792 101.17875,13.39875 101.17875,13.39958 101.17792,13.40042 101.17792,13.40125 101.17792,13.40208 101.17792,13.40292 101.17792,13.40375 101.17708,13.40458 101.17625,13.40542 101.17542,13.40625 101.17458,13.40708 101.17375,13.40792 101.17375,13.40875 101.17292,13.40958 101.17208,13.41042 101.17125,13.41125 101.17042,13.41208 101.16958,13.41292 101.16958,13.41375 101.16875,13.41458 101.16875,13.41542 101.16875,13.41625 101.16875,13.41708 101.16792,13.41792 101.16792,13.41875 101.16708,13.41958 101.16708,13.42042 101.16625,13.42125 101.16625,13.42208 101.16625,13.42292 101.16542,13.42375 101.16458,13.42458 101.16375,13.42542 101.16292,13.42625 101.16208,13.42708 101.16125,13.42625 101.16042,13.42625 101.15958,13.42708 101.15875,13.42708 101.15792,13.42625 101.15708,13.42625 101.15625,13.42625 101.15542,13.42708 101.15458,13.42792 101.15375,13.42792 101.15292,13.42875 101.15208,13.42875 101.15125,13.42875 101.15042,13.42958 101.14958,13.42958 101.14875,13.42958 101.14792,13.42958 101.14708,13.42958 101.14625,13.43042 101.14542,13.43125 101.14458,13.43042 101.14375,13.43125 101.14292,13.43208 101.14292,13.43292 101.14208,13.43375 101.14125,13.43458 101.14042,13.43542 101.14042,13.43625 101.13958,13.43708 101.13875,13.43792 101.13792,13.43875 101.13708,13.43792</coordinates></LineString></Placemark><Placemark><name>S1 สะพานคลองกลางเมือง ก่อนเข้าเมือง</name><description>ต้องมี (ตัวที่ 1) · ลำน้ำสายนี้ไหลตรงเข้ากลางเมือง ผ่านออฟฟิศ ตลาด บ้านเช่า 44 · วัดตรงนี้ = รู้ว่าน้ำกำลังจะเข้าเมืองเท่าไหร่ ก่อนถึงออฟฟิศ ~2 กม. (ราว 1 ชม.)</description><Point><coordinates>101.18704,13.42861</coordinates></Point></Placemark><Placemark><name>S2 สะพานลำน้ำสายหลัก เหนือจุดแยก</name><description>ต้องมี (ตัวที่ 2) เตือนล่วงหน้า · รวมน้ำจากต้นน้ำฝั่งถนน 331 (รวมบ่อหนองเสม็ด/อาหารสยาม) ก่อนแยกเข้าเมือง · ห่างออฟฟิศ 9 กม. ได้เวลาเตรียมตัวหลายชั่วโมง</description><Point><coordinates>101.21246,13.37211</coordinates></Point></Placemark><Placemark><name>S3 สะพานห้วยเกวียน ถนนศุขประยูร</name><description>ควรมี · ห้วยเกวียนตัวจริง (ตามแผนที่) ไหลผ่านด้านตะวันตกของเมือง ~2 กม. · สะพานถนนใหญ่ ติดตั้ง/ดูแลง่าย</description><Point><coordinates>101.15868,13.4454</coordinates></Point></Placemark><Placemark><name>A สะพานห้วยเกวียน บ้านเกาะสะเดา</name><description>เสี่ยดูด้วยตา (ผ่านวันละหลายรอบ) · ห้วยเกวียนฝั่งตะวันตกเมือง ห่างออฟฟิศ 1.6 กม. · ท้องคลองสูงพอๆ กับพื้นตลาด ถ้าล้นตลิ่งน้ำแผ่เข้าเมืองฝั่งตะวันตกได้ · จดระดับเทียบจุดอ้างอิงเดิมทุกครั้ง</description><Point><coordinates>101.174763,13.431541</coordinates></Point></Placemark><Placemark><name>S4 สะพานคลองกลางเมือง ถนนวัดโรมันคาทอลิก</name><description>ทางเลือก (วัดความจริงที่ออฟฟิศ) · ห่างออฟฟิศ 140 ม. ไม่ได้ช่วยเตือนล่วงหน้า แต่บอกระดับน้ำที่ออฟฟิศจริง ใช้ปรับแบบจำลองให้แม่น · ดูแลง่ายสุด</description><Point><coordinates>101.17788,13.44666</coordinates></Point></Placemark><Placemark><name>ออฟฟิศ</name><Point><coordinates>101.176828,13.445963</coordinates></Point></Placemark><Placemark><name>จุดแยกลำน้ำ (Yang / Nong Suang)</name><Point><coordinates>101.2103,13.3821</coordinates></Point></Placemark><Placemark><name>บ่ออาหารสยาม</name><Point><coordinates>101.2569444,13.3052778</coordinates></Point></Placemark><Placemark><name>บ่อหนองเสม็ด</name><Point><coordinates>101.2747222,13.3230556</coordinates></Point></Placemark><Placemark><name>อ่างบ้านบึง</name><Point><coordinates>101.1270076,13.2502636</coordinates></Point></Placemark><Placemark><name>อ่างคลองหลวง</name><Point><coordinates>101.3424577,13.3837811</coordinates></Point></Placemark></Document></kml>